OBJECT_NAME,OBJECT_ID,EPOCH,MEAN_MOTION,ECCENTRICITY,INCLINATION,RA_OF_ASC_NODE,ARG_OF_PERICENTER,MEAN_ANOMALY,EPHEMERIS_TYPE,CLASSIFICATION_TYPE,NORAD_CAT_ID,ELEMENT_SET_NO,REV_AT_EPOCH,BSTAR,MEAN_MOTION_DOT,MEAN_MOTION_DDOT
LEMUR-2-CELIJO-SB-PK,2025-276DW,2026-07-04T10:43:06.273696,15.00190777,.00075872,97.5205,255.6558,90.9208,269.2885,0,U,66781,999,2521,.77670934E-3,.9663E-4,0
LEMUR-2-FINNIAN,2025-276DX,2026-07-04T02:03:35.587584,15.00507764,.00083208,97.5332,255.5473,39.2121,320.9704,0,U,66782,999,2253,.28654186E-3,.3556E-4,0
LEMUR-2-STARLIGHT,2025-276DY,2026-07-04T10:58:46.906176,14.99246364,.00145994,97.5224,255.5056,78.2927,281.9933,0,U,66783,999,3278,.74169645E-3,.9013E-4,0
LEMUR-2-TARTIFLETTE,2025-276DZ,2026-07-04T10:56:21.659136,14.99248120,.00136803,97.5228,255.5123,86.0157,274.2631,0,U,66784,999,3278,.69021659E-3,.8381E-4,0
LEMUR-2-VUKASIN,2025-276EA,2026-07-02T04:01:06.227616,15.00442804,.00049534,97.5271,253.6348,89.5693,270.6099,0,U,66785,999,3239,.15220199E-3,.1857E-4,0
LEMUR-2-HOTSPUR-TOM,2025-276EB,2026-07-04T15:35:40.068384,14.99161384,.00140368,97.5219,255.6770,76.9012,283.3777,0,U,66786,999,3274,.10436633E-2,.12682E-3,0
LEMUR-2-MYRA,2025-276EC,2026-07-04T11:12:28.247040,15.00498915,.00183422,97.5211,255.7828,86.7296,273.6026,0,U,66787,999,3280,.11348048E-2,.14309E-3,0
LEMUR-2 FIKRETDENGIZ,2026-004A,2026-07-04T17:57:18.312768,14.88464943,.00105851,97.8023,184.0376,84.7168,275.5256,0,U,67363,999,2589,.8244775E-3,.7612E-4,0
TWILIGHT-1 OBJECT B,2026-004B,2026-07-04T17:06:46.186848,14.87770543,.00101943,97.8065,184.0096,75.3271,284.9075,0,U,67364,999,2589,.31184346E-3,.2794E-4,0
LEMUR-2-MARIO-SOUSA,2026-004C,2026-07-04T22:20:46.206240,14.88667918,.00101682,97.7994,184.2129,85.5003,274.7375,0,U,67365,999,2593,.79122958E-3,.7339E-4,0
LEMUR-2-SONNENBLUME,2026-004E,2026-07-04T06:14:11.582592,14.88408585,.00097148,97.7989,183.5297,88.2038,272.0292,0,U,67367,999,2583,.39859553E-3,.3644E-4,0
LEMUR-2-WOBLER,2026-004F,2026-07-04T17:18:49.522464,14.88647395,.00099057,97.8041,184.1241,78.6329,281.6001,0,U,67368,999,2590,.72852761E-3,.6749E-4,0
LEMUR-2-GRAM-E-SUE,2026-004H,2026-07-04T17:06:28.568160,14.88557864,.00088421,97.7976,183.9917,89.0463,271.1767,0,U,67370,999,2590,.44360227E-3,.4076E-4,0
LEMUR-2-KATIE,2026-004AA,2026-07-04T17:57:51.791904,14.90186381,.00043399,97.8041,184.5435,57.8046,302.3593,0,U,67387,999,2592,.10383116E-2,.10015E-3,0
LEMUR-2-HCS-BAZUS,2026-004AB,2026-07-04T17:55:43.719456,14.90225259,.00037507,97.8029,184.5216,56.4546,303.7029,0,U,67388,999,2592,.49427691E-3,.4739E-4,0
